[Satellite]
VERSION=1.1
NAME=STARLINK-5176
NICKNAME=STARLINK-5176
TLE1=1 54053U 22136C   22321.58334491  .00062821  00000+0  11074-2 0  9991
TLE2=2 54053  53.2157  10.6140 0002017  36.8112  82.9153 15.49846602  1302
STATUS=0
